NORAD_CAT_ID,OBJECT_NAME,OBJECT_TYPE,EPOCH,MEAN_MOTION,ECCENTRICITY,INCLINATION,RA_OF_ASC_NODE,ARG_OF_PERICENTER,MEAN_ANOMALY,BSTAR,MEAN_MOTION_DOT,MEAN_MOTION_DDOT,TLE_LINE0,TLE_LINE1,TLE_LINE2,SEMIMAJOR_AXIS,PERIOD,APOGEE,PERIGEE,DECAYED
52372.0,STARLINK-3796,PAYLOAD,2023-08-14 00:07:52,15.08843235,0.0001133,53.2172,83.033,93.4416,266.6706,8.6751e-05,1.093e-05,0.0,0 STARLINK-3796,1 52372U 22045AT  23226.00547112  .00001093  00000-0  86751-4 0  9991,2 52372  53.2172  83.0330 0001133  93.4416 266.6706 15.08843235 74208,6917.871,95.437,540.519,538.952,0.0
52372.0,STARLINK-3796,PAYLOAD,2023-08-15 14:17:08,15.08839727,0.0001216,53.2175,75.8961,99.212,260.9009,5.9289e-05,6.56e-06,0.0,0 STARLINK-3796,1 52372U 22045AT  23227.59523366  .00000656  00000-0  59289-4 0  9991,2 52372  53.2175  75.8961 0001216  99.2120 260.9009 15.08839727 74448,6917.881,95.438,540.587,538.905,0.0
52372.0,STARLINK-3796,PAYLOAD,2023-08-16 23:40:14,15.0883407,0.0001331,53.2158,69.6533,89.2935,270.821,4.7225e-05,4.64e-06,0.0,0 STARLINK-3796,1 52372U 22045AT  23228.98627959  .00000464  00000-0  47225-4 0  9992,2 52372  53.2158  69.6533 0001331  89.2935 270.8210 15.08834070 74659,6917.899,95.438,540.684,538.843,0.0
52372.0,STARLINK-3796,PAYLOAD,2023-08-17 20:20:14,15.0884486,0.0001108,53.2161,65.7868,83.6746,276.4372,0.00010858,1.441e-05,0.0,0 STARLINK-3796,1 52372U 22045AT  23229.84739147  .00001441  00000-0  10858-3 0  9998,2 52372  53.2161  65.7868 0001108  83.6746 276.4372 15.08844860 74784,6917.866,95.437,540.497,538.964,0.0
52372.0,STARLINK-3796,PAYLOAD,2023-08-18 13:49:30,15.08827363,0.000164,53.2195,62.5178,91.5921,268.5259,6.771e-05,7.89e-06,0.0,0 STARLINK-3796,1 52372U 22045AT  23230.57604603  .00000789  00000-0  67710-4 0  9992,2 52372  53.2195  62.5178 0001640  91.5921 268.5259 15.08827363 74891,6917.919,95.438,540.919,538.649,0.0
52372.0,STARLINK-3796,PAYLOAD,2023-08-18 21:46:25,15.08837353,9.74e-05,53.2167,61.0289,79.6633,280.4469,3.9599e-05,3.42e-06,0.0,0 STARLINK-3796,1 52372U 22045AT  23230.90724120  .00000342  00000-0  39599-4 0  9995,2 52372  53.2167  61.0289 0000974  79.6633 280.4469 15.08837353 74945,6917.888,95.438,540.427,539.08,0.0
52372.0,STARLINK-3796,PAYLOAD,2023-08-20 11:55:40,15.08841326,9.97e-05,53.2152,53.8912,104.8213,255.289,9.7031e-05,1.257e-05,0.0,0 STARLINK-3796,1 52372U 22045AT  23232.49699861  .00001257  00000-0  97031-4 0  9995,2 52372  53.2152  53.8912 0000997 104.8213 255.2890 15.08841326 75181,6917.876,95.437,540.431,539.052,0.0
52372.0,STARLINK-3796,PAYLOAD,2023-08-20 18:17:12,15.08863945,0.0001047,53.2174,52.7037,82.3525,277.7586,-0.00014892,-2.659e-05,0.0,0 STARLINK-3796,1 52372U 22045AT  23232.76195061 -.00002659  00000-0 -14892-3 0  9990,2 52372  53.2174  52.7037 0001047  82.3525 277.7586 15.08863945 75221,6917.807,95.436,540.396,538.948,0.0
52372.0,STARLINK-3796,PAYLOAD,2023-08-20 23:03:22,15.08850692,0.0001106,53.2166,51.8111,77.8547,282.2569,0.00028822,4.303e-05,0.0,0 STARLINK-3796,1 52372U 22045AT  23232.96067605  .00004303  00000-0  28822-3 0  9998,2 52372  53.2166  51.8111 0001106  77.8547 282.2569 15.08850692 75254,6917.848,95.437,540.478,538.948,0.0
52372.0,STARLINK-3796,PAYLOAD,2023-08-21 05:24:55,15.08839478,0.0001086,53.2171,50.6224,80.1024,280.0091,0.00013151,1.806e-05,0.0,0 STARLINK-3796,1 52372U 22045AT  23233.22564217  .00001806  00000-0  13151-3 0  9993,2 52372  53.2171  50.6224 0001086  80.1024 280.0091 15.08839478 75295,6917.882,95.438,540.498,538.996,0.0
52372.0,STARLINK-3796,PAYLOAD,2023-08-22 11:37:15,15.08839179,0.0001238,53.2179,44.9718,83.5081,276.6052,-3.964e-05,-9.19e-06,0.0,0 STARLINK-3796,1 52372U 22045AT  23234.48420152 -.00000919  00000-0 -39640-4 0  9999,2 52372  53.2179  44.9718 0001238  83.5081 276.6052 15.08839179 75483,6917.883,95.438,540.604,538.891,0.0
52372.0,STARLINK-3796,PAYLOAD,2023-08-24 14:29:35,15.08838351,0.0001106,53.2167,35.4557,91.1705,268.9414,8.0024e-05,9.86e-06,0.0,0 STARLINK-3796,1 52372U 22045AT  23236.60388400  .00000986  00000-0  80024-4 0  9998,2 52372  53.2167  35.4557 0001106  91.1705 268.9414 15.08838351 75801,6917.885,95.438,540.516,538.985,0.0
52372.0,STARLINK-3796,PAYLOAD,2023-08-25 14:20:22,15.08839902,0.0001122,53.2167,30.9964,84.3048,275.8073,7.418e-05,8.93e-06,0.0,0 STARLINK-3796,1 52372U 22045AT  23237.59748425  .00000893  00000-0  74180-4 0  9997,2 52372  53.2167  30.9964 0001122  84.3048 275.8073 15.08839902 75952,6917.881,95.438,540.522,538.97,0.0
52372.0,STARLINK-3796,PAYLOAD,2023-08-25 19:06:32,15.08835236,0.0001083,53.2183,30.1028,83.1479,276.9637,0.0003034,4.543e-05,0.0,0 STARLINK-3796,1 52372U 22045AT  23237.79620609  .00004543  00000-0  30340-3 0  9997,2 52372  53.2183  30.1028 0001083  83.1479 276.9637 15.08835236 75981,6917.895,95.438,540.509,539.011,0.0
52372.0,STARLINK-3796,PAYLOAD,2023-08-26 12:35:46,15.08836504,0.0001265,53.218,26.8319,73.5045,286.6086,5.1114e-05,5.26e-06,0.0,0 STARLINK-3796,1 52372U 22045AT  23238.52484768  .00000526  00000-0  51114-4 0  9993,2 52372  53.2180  26.8319 0001265  73.5045 286.6086 15.08836504 76095,6917.891,95.438,540.631,538.881,0.0
52372.0,STARLINK-3796,PAYLOAD,2023-08-26 17:21:55,15.08842148,0.0001136,53.2177,25.9403,79.7812,280.3308,0.00012874,1.762e-05,0.0,0 STARLINK-3796,1 52372U 22045AT  23238.72356474  .00001762  00000-0  12874-3 0  9999,2 52372  53.2177  25.9403 0001136  79.7812 280.3308 15.08842148 76125,6917.874,95.437,540.525,538.953,0.0
52372.0,STARLINK-3796,PAYLOAD,2023-08-27 18:48:06,15.08843373,0.0001199,53.2179,21.1827,73.1871,286.9252,0.00010633,1.405e-05,0.0,0 STARLINK-3796,1 52372U 22045AT  23239.78340679  .00001405  00000-0  10633-3 0  9991,2 52372  53.2179  21.1827 0001199  73.1871 286.9252 15.08843373 76285,6917.87,95.437,540.565,538.906,0.0
52372.0,STARLINK-3796,PAYLOAD,2023-08-28 02:45:02,15.08837705,0.0001104,53.2179,19.6943,87.1949,272.9169,2.0811e-05,4.3e-07,0.0,0 STARLINK-3796,1 52372U 22045AT  23240.11460891  .00000043  00000-0  20811-4 0  9996,2 52372  53.2179  19.6943 0001104  87.1949 272.9169 15.08837705 76333,6917.887,95.438,540.516,538.989,0.0
52372.0,STARLINK-3796,PAYLOAD,2023-08-28 15:28:07,15.08839155,0.0001094,53.2177,17.3167,83.6943,276.4174,7.0188e-05,8.29e-06,0.0,0 STARLINK-3796,1 52372U 22045AT  23240.64453063  .00000829  00000-0  70188-4 0  9991,2 52372  53.2177  17.3167 0001094  83.6943 276.4174 15.08839155 76412,6917.883,95.438,540.505,538.991,0.0
52372.0,STARLINK-3796,PAYLOAD,2023-08-29 02:35:49,15.08845943,0.0001551,53.2181,15.236,66.2483,293.8671,0.00012278,1.667e-05,0.0,0 STARLINK-3796,1 52372U 22045AT  23241.10820771  .00001667  00000-0  12278-3 0  9993,2 52372  53.2181  15.2360 0001551  66.2483 293.8671 15.08845943 76487,6917.862,95.437,540.8,538.654,0.0
52372.0,STARLINK-3796,PAYLOAD,2023-08-29 15:18:54,15.08847178,0.0001216,53.2174,12.8568,82.115,277.998,0.00018195,2.61e-05,0.0,0 STARLINK-3796,1 52372U 22045AT  23241.63812723  .00002610  00000-0  18195-3 0  9992,2 52372  53.2174  12.8568 0001216  82.1150 277.9980 15.08847178 76565,6917.858,95.437,540.565,538.882,0.0
52372.0,STARLINK-3796,PAYLOAD,2023-08-30 15:09:41,15.08845248,0.0001172,53.2175,8.3963,87.2188,272.8938,0.00014706,2.054e-05,0.0,0 STARLINK-3796,1 52372U 22045AT  23242.63172757  .00002054  00000-0  14706-3 0  9995,2 52372  53.2175   8.3963 0001172  87.2188 272.8938 15.08845248 76713,6917.864,95.437,540.54,538.919,0.0
52372.0,STARLINK-3796,PAYLOAD,2023-08-31 11:49:42,15.08841972,0.0001012,53.2178,4.532,78.6916,281.419,8.0786e-05,9.98e-06,0.0,0 STARLINK-3796,1 52372U 22045AT  23243.49284723  .00000998  00000-0  80786-4 0  9994,2 52372  53.2178   4.5320 0001012  78.6916 281.4190 15.08841972 76847,6917.874,95.437,540.439,539.039,0.0
52372.0,STARLINK-3796,PAYLOAD,2023-09-01 10:05:06,15.08837844,0.000125,53.218,0.3687,91.2552,268.8584,3.5918e-05,2.84e-06,0.0,0 STARLINK-3796,1 52372U 22045AT  23244.42021367  .00000284  00000-0  35918-4 0  9996,2 52372  53.2180   0.3687 0001250  91.2552 268.8584 15.08837844 76985,6917.887,95.438,540.617,538.887,0.0
52372.0,STARLINK-3796,PAYLOAD,2023-09-01 14:51:15,15.08844786,0.0001106,53.2182,359.4769,93.9272,266.1846,0.00010688,1.414e-05,0.0,0 STARLINK-3796,1 52372U 22045AT  23244.61892682  .00001414  00000-0  10688-3 0  9995,2 52372  53.2182 359.4769 0001106  93.9272 266.1846 15.08844786 77014,6917.866,95.437,540.496,538.966,0.0
52372.0,STARLINK-3796,PAYLOAD,2023-09-02 13:06:39,15.08837205,0.0001446,53.2177,355.314,82.1732,277.9425,7.0856e-05,8.4e-06,0.0,0 STARLINK-3796,1 52372U 22045AT  23245.54629481  .00000840  00000-0  70856-4 0  9999,2 52372  53.2177 355.3140 0001446  82.1732 277.9425 15.08837205 77150,6917.889,95.438,540.754,538.754,0.0
52372.0,STARLINK-3796,PAYLOAD,2023-09-02 17:52:48,15.08846261,0.0001337,53.2174,354.4216,82.7951,277.3193,0.00015675,2.208e-05,0.0,0 STARLINK-3796,1 52372U 22045AT  23245.74500694  .00002208  00000-0  15675-3 0  9992,2 52372  53.2174 354.4216 0001337  82.7951 277.3193 15.08846261 77180,6917.861,95.437,540.651,538.801,0.0
52372.0,STARLINK-3796,PAYLOAD,2023-09-03 09:46:40,15.08845446,0.0001268,53.2176,351.4487,83.6582,276.4555,0.00016328,2.312e-05,0.0,0 STARLINK-3796,1 52372U 22045AT  23246.40740752  .00002312  00000-0  16328-3 0  9999,2 52372  53.2176 351.4487 0001268  83.6582 276.4555 15.08845446 77289,6917.864,95.437,540.606,538.852,0.0
52372.0,STARLINK-3796,PAYLOAD,2023-09-04 09:37:27,15.0883032,0.0001018,53.2201,346.9854,73.2897,286.8207,1.1852e-05,-9.9e-07,0.0,0 STARLINK-3796,1 52372U 22045AT  23247.40101606 -.00000099  00000-0  11852-4 0  9998,2 52372  53.2201 346.9854 0001018  73.2897 286.8207 15.08830320 77433,6917.91,95.438,540.479,539.071,0.0
52372.0,STARLINK-3796,PAYLOAD,2023-09-04 12:48:14,15.08828833,0.0001016,53.2198,346.3912,75.838,284.2725,-1.806e-05,-5.75e-06,0.0,0 STARLINK-3796,1 52372U 22045AT  23247.53349737 -.00000575  00000-0 -18060-4 0  9999,2 52372  53.2198 346.3912 0001016  75.8380 284.2725 15.08828833 77455,6917.915,95.438,540.482,539.077,0.0
